{"type": "FeatureCollection", "features": [ {"type": "Feature", "properties": {"norad_id": 66573, "name": "STARLINK-35650", "group": "last-30-days", "lat": 5.293977878017523, "lon": 148.80573481005447, "alt_km": 410.793403187633, "timestamp": "2025-12-08T23:34:02.740102+00:00", "meta": {"OBJECT_NAME": "STARLINK-35650", "OBJECT_ID": "2025-268S", "EPOCH": "2025-12-08T14:00:01.999872", "MEAN_MOTION": 15.53237187, "ECCENTRICITY": 0.00011723, "INCLINATION": 43.0004, "RA_OF_ASC_NODE": 145.4378, "ARG_OF_PERICENTER": 263.3675, "MEAN_ANOMALY": 33.9412, "EPHEMERIS_TYPE": 0, "CLASSIFICATION_TYPE": "U", "NORAD_CAT_ID": 66573, "ELEMENT_SET_NO": 999, "REV_AT_EPOCH": 400, "BSTAR": -0.029821527, "MEAN_MOTION_DOT": -0.01718797, "MEAN_MOTION_DDOT": 0}, "tle": {"line1": "1 66573U 25268S   25342.58335648 -.01718797  00000+0 -29822-1 0  9993", "line2": "2 66573  43.0004 145.4378 0001172 263.3675  33.9412 15.53237187  4003"}}, "geometry": {"type": "Point", "coordinates": [148.80573481005447, 5.293977878017523]}}, {"type": "Feature", "properties": {"norad_id": 66574, "name": "STARLINK-35812", "group": "last-30-days", "lat": 6.565071226514569, "lon": 150.18817006562742, "alt_km": 410.93235951093175, "timestamp": "2025-12-08T23:34:02.740112+00:00", "meta": {"OBJECT_NAME": "STARLINK-35812", "OBJECT_ID": "2025-268T", "EPOCH": "2025-12-08T14:00:01.999872", "MEAN_MOTION": 15.53223066, "ECCENTRICITY": 0.00015147, "INCLINATION": 43.0008, "RA_OF_ASC_NODE": 145.4327, "ARG_OF_PERICENTER": 260.5714, "MEAN_ANOMALY": 38.6601, "EPHEMERIS_TYPE": 0, "CLASSIFICATION_TYPE": "U", "NORAD_CAT_ID": 66574, "ELEMENT_SET_NO": 999, "REV_AT_EPOCH": 400, "BSTAR": -0.030692549, "MEAN_MOTION_DOT": -0.0176287, "MEAN_MOTION_DDOT": 0}, "tle": {"line1": "1 66574U 25268T   25342.58335648 -.01762870  00000+0 -30693-1 0  9993", "line2": "2 66574  43.0008 145.4327 0001514 260.5714  38.6601 15.53223066  4008"}}, "geometry": {"type": "Point", "coordinates": [150.18817006562742, 6.565071226514569]}}, {"type": "Feature", "properties": {"norad_id": 66575, "name": "STARLINK-35810", "group": "last-30-days", "lat": 7.861156166256915, "lon": 151.61018387215898, "alt_km": 410.6558282302467, "timestamp": "2025-12-08T23:34:02.740122+00:00", "meta": {"OBJECT_NAME": "STARLINK-35810", "OBJECT_ID": "2025-268U", "EPOCH": "2025-12-08T14:00:01.999872", "MEAN_MOTION": 15.53226016, "ECCENTRICITY": 0.00013659, "INCLINATION": 43.0005, "RA_OF_ASC_NODE": 145.4282, "ARG_OF_PERICENTER": 265.0918, "MEAN_ANOMALY": 36.0579, "EPHEMERIS_TYPE": 0, "CLASSIFICATION_TYPE": "U", "NORAD_CAT_ID": 66575, "ELEMENT_SET_NO": 999, "REV_AT_EPOCH": 400, "BSTAR": -0.030767663, "MEAN_MOTION_DOT": -0.017668, "MEAN_MOTION_DDOT": 0}, "tle": {"line1": "1 66575U 25268U   25342.58335648 -.01766800  00000+0 -30768-1 0  9994", "line2": "2 66575  43.0005 145.4282 0001365 265.0918  36.0579 15.53226016  4000"}}, "geometry": {"type": "Point", "coordinates": [151.61018387215898, 7.861156166256915]}}, {"type": "Feature", "properties": {"norad_id": 66576, "name": "STARLINK-35814", "group": "last-30-days", "lat": 9.149431465236685, "lon": 153.03728249295176, "alt_km": 410.5905404728983, "timestamp": "2025-12-08T23:34:02.740132+00:00", "meta": {"OBJECT_NAME": "STARLINK-35814", "OBJECT_ID": "2025-268V", "EPOCH": "2025-12-08T14:00:01.999872", "MEAN_MOTION": 15.53223946, "ECCENTRICITY": 0.00012527, "INCLINATION": 43.0004, "RA_OF_ASC_NODE": 145.4232, "ARG_OF_PERICENTER": 260.0405, "MEAN_ANOMALY": 43.0286, "EPHEMERIS_TYPE": 0, "CLASSIFICATION_TYPE": "U", "NORAD_CAT_ID": 66576, "ELEMENT_SET_NO": 999, "REV_AT_EPOCH": 400, "BSTAR": -0.030790989, "MEAN_MOTION_DOT": -0.01767812, "MEAN_MOTION_DDOT": 0}, "tle": {"line1": "1 66576U 25268V   25342.58335648 -.01767812  00000+0 -30791-1 0  9995", "line2": "2 66576  43.0004 145.4232 0001252 260.0405  43.0286 15.53223946  4008"}}, "geometry": {"type": "Point", "coordinates": [153.03728249295176, 9.149431465236685]}}, {"type": "Feature", "properties": {"norad_id": 66577, "name": "STARLINK-35815", "group": "last-30-days", "lat": 10.433074731169631, "lon": 154.47593641408142, "alt_km": 410.4310304796991, "timestamp": "2025-12-08T23:34:02.740142+00:00", "meta": {"OBJECT_NAME": "STARLINK-35815", "OBJECT_ID": "2025-268W", "EPOCH": "2025-12-08T14:00:01.999872", "MEAN_MOTION": 15.53225694, "ECCENTRICITY": 0.0001219, "INCLINATION": 43.0003, "RA_OF_ASC_NODE": 145.4182, "ARG_OF_PERICENTER": 260.2049, "MEAN_ANOMALY": 44.7813, "EPHEMERIS_TYPE": 0, "CLASSIFICATION_TYPE": "U", "NORAD_CAT_ID": 66577, "ELEMENT_SET_NO": 999, "REV_AT_EPOCH": 400, "BSTAR": -0.030897955, "MEAN_MOTION_DOT": -0.01773358, "MEAN_MOTION_DDOT": 0}, "tle": {"line1": "1 66577U 25268W   25342.58335648 -.01773358  00000+0 -30898-1 0  9996", "line2": "2 66577  43.0003 145.4182 0001219 260.2049  44.7813 15.53225694  4007"}}, "geometry": {"type": "Point", "coordinates": [154.47593641408142, 10.433074731169631]}}, {"type": "Feature", "properties": {"norad_id": 66578, "name": "STARLINK-35743", "group": "last-30-days", "lat": 11.711983805934272, "lon": 155.9290471165078, "alt_km": 410.2097673174085, "timestamp": "2025-12-08T23:34:02.740154+00:00", "meta": {"OBJECT_NAME": "STARLINK-35743", "OBJECT_ID": "2025-268X", "EPOCH": "2025-12-08T14:00:01.999872", "MEAN_MOTION": 15.53223604, "ECCENTRICITY": 0.00012184, "INCLINATION": 43.0003, "RA_OF_ASC_NODE": 145.4137, "ARG_OF_PERICENTER": 263.0581, "MEAN_ANOMALY": 43.8455, "EPHEMERIS_TYPE": 0, "CLASSIFICATION_TYPE": "U", "NORAD_CAT_ID": 66578, "ELEMENT_SET_NO": 999, "REV_AT_EPOCH": 400, "BSTAR": -0.030808393, "MEAN_MOTION_DOT": -0.01768663, "MEAN_MOTION_DDOT": 0}, "tle": {"line1": "1 66578U 25268X   25342.58335648 -.01768663  00000+0 -30808-1 0  9991", "line2": "2 66578  43.0003 145.4137 0001218 263.0581  43.8455 15.53223604  4000"}}, "geometry": {"type": "Point", "coordinates": [155.9290471165078, 11.711983805934272]}}, {"type": "Feature", "properties": {"norad_id": 66579, "name": "STARLINK-35868", "group": "last-30-days", "lat": 12.982581843389095, "lon": 157.3942962375185, "alt_km": 410.1015037786128, "timestamp": "2025-12-08T23:34:02.740164+00:00", "meta": {"OBJECT_NAME": "STARLINK-35868", "OBJECT_ID": "2025-268Y", "EPOCH": "2025-12-08T14:00:01.999872", "MEAN_MOTION": 15.53229608, "ECCENTRICITY": 0.00013189, "INCLINATION": 43.0002, "RA_OF_ASC_NODE": 145.4088, "ARG_OF_PERICENTER": 262.2384, "MEAN_ANOMALY": 46.5782, "EPHEMERIS_TYPE": 0, "CLASSIFICATION_TYPE": "U", "NORAD_CAT_ID": 66579, "ELEMENT_SET_NO": 999, "REV_AT_EPOCH": 400, "BSTAR": -0.03096866, "MEAN_MOTION_DOT": -0.01777248, "MEAN_MOTION_DDOT": 0}, "tle": {"line1": "1 66579U 25268Y   25342.58335648 -.01777248  00000+0 -30969-1 0  9999", "line2": "2 66579  43.0002 145.4088 0001318 262.2384  46.5782 15.53229608  4001"}}, "geometry": {"type": "Point", "coordinates": [157.3942962375185, 12.982581843389095]}}, {"type": "Feature", "properties": {"norad_id": 66580, "name": "STARLINK-35872", "group": "last-30-days", "lat": 14.24455038411369, "lon": 158.87503038345017, "alt_km": 410.0026520173251, "timestamp": "2025-12-08T23:34:02.740178+00:00", "meta": {"OBJECT_NAME": "STARLINK-35872", "OBJECT_ID": "2025-268Z", "EPOCH": "2025-12-08T14:00:01.999872", "MEAN_MOTION": 15.53225005, "ECCENTRICITY": 0.00012394, "INCLINATION": 43.0002, "RA_OF_ASC_NODE": 145.4047, "ARG_OF_PERICENTER": 257.0519, "MEAN_ANOMALY": 53.6836, "EPHEMERIS_TYPE": 0, "CLASSIFICATION_TYPE": "U", "NORAD_CAT_ID": 66580, "ELEMENT_SET_NO": 999, "REV_AT_EPOCH": 400, "BSTAR": -0.030817547, "MEAN_MOTION_DOT": -0.01769223, "MEAN_MOTION_DDOT": 0}, "tle": {"line1": "1 66580U 25268Z   25342.58335648 -.01769223  00000+0 -30818-1 0  9998", "line2": "2 66580  43.0002 145.4047 0001239 257.0519  53.6836 15.53225005  4008"}}, "geometry": {"type": "Point", "coordinates": [158.87503038345017, 14.24455038411369]}}, {"type": "Feature", "properties": {"norad_id": 66581, "name": "STARLINK-35744", "group": "last-30-days", "lat": 15.498433836050088, "lon": 160.3722842419063, "alt_km": 409.8207402727576, "timestamp": "2025-12-08T23:34:02.740190+00:00", "meta": {"OBJECT_NAME": "STARLINK-35744", "OBJECT_ID": "2025-268AA", "EPOCH": "2025-12-08T14:00:01.999872", "MEAN_MOTION": 15.53229083, "ECCENTRICITY": 0.00012879, "INCLINATION": 43.0003, "RA_OF_ASC_NODE": 145.3991, "ARG_OF_PERICENTER": 259.4085, "MEAN_ANOMALY": 53.2426, "EPHEMERIS_TYPE": 0, "CLASSIFICATION_TYPE": "U", "NORAD_CAT_ID": 66581, "ELEMENT_SET_NO": 999, "REV_AT_EPOCH": 395, "BSTAR": -0.030939397, "MEAN_MOTION_DOT": -0.01775707, "MEAN_MOTION_DDOT": 0}, "tle": {"line1": "1 66581U 25268AA  25342.58335648 -.01775707  00000+0 -30939-1 0  9997", "line2": "2 66581  43.0003 145.3991 0001287 259.4085  53.2426 15.53229083  3958"}}, "geometry": {"type": "Point", "coordinates": [160.3722842419063, 15.498433836050088]}}, {"type": "Feature", "properties": {"norad_id": 66582, "name": "STARLINK-35746", "group": "last-30-days", "lat": 16.74159504441507, "lon": 161.88795847831605, "alt_km": 409.666445295893, "timestamp": "2025-12-08T23:34:02.740200+00:00", "meta": {"OBJECT_NAME": "STARLINK-35746", "OBJECT_ID": "2025-268AB", "EPOCH": "2025-12-08T14:00:01.999872", "MEAN_MOTION": 15.53224787, "ECCENTRICITY": 0.00013039, "INCLINATION": 43.0004, "RA_OF_ASC_NODE": 145.3942, "ARG_OF_PERICENTER": 259.1762, "MEAN_ANOMALY": 55.3945, "EPHEMERIS_TYPE": 0, "CLASSIFICATION_TYPE": "U", "NORAD_CAT_ID": 66582, "ELEMENT_SET_NO": 999, "REV_AT_EPOCH": 400, "BSTAR": -0.030842396, "MEAN_MOTION_DOT": -0.01770514, "MEAN_MOTION_DDOT": 0}, "tle": {"line1": "1 66582U 25268AB  25342.58335648 -.01770514  00000+0 -30842-1 0  9992", "line2": "2 66582  43.0004 145.3942 0001303 259.1762  55.3945 15.53224787  4006"}}, "geometry": {"type": "Point", "coordinates": [161.88795847831605, 16.74159504441507]}}]}